ONEWEB-0321             
1 49191U 21083F   26093.27746118  .00000078  00000+0  16031-3 0  9992
2 49191  87.9140 289.3918 0001979  85.3025 274.8334 13.20771945226947
ONEWEB-0322             
1 49192U 21083G   26093.19664529  .00000435  00000+0  11575-2 0  9993
2 49192  87.8994 335.1706 0002169  85.5909 274.5468 13.13469497221076
ONEWEB-0324             
1 49193U 21083H   26093.24566979  .00000117  00000+0  26467-3 0  9994
2 49193  87.9240 350.3435 0001736  74.0700 286.0623 13.18688776220125
ONEWEB-0325             
1 49194U 21083J   26093.24896592  .00000156  00000+0  36342-3 0  9998
2 49194  87.9231 350.3581 0001778  81.3040 278.8293 13.18689241220133
ONEWEB-0326             
1 49195U 21083K   26093.26396309  .00000161  00000+0  37463-3 0  9993
2 49195  87.9239 350.3464 0001470  84.8010 275.3290 13.18689335220128
ONEWEB-0327             
1 49196U 21083L   26093.26368385  .00000124  00000+0  28235-3 0  9993
2 49196  87.9234 350.3568 0001476  91.4808 268.6494 13.18686700220140
ONEWEB-0328             
1 49197U 21083M   26093.18648713  .00000374  00000+0  98841-3 0  9998
2 49197  87.9012 335.1362 0001689  76.0462 284.0855 13.13470083221053
ONEWEB-0331             
1 49198U 21083N   26093.25721402 -.00000139  00000+0 -38523-3 0  9996
2 49198  87.9239 350.3414 0001409  77.7026 282.4264 13.18687160220131
ONEWEB-0333             
1 49199U 21083P   26093.18140680  .00000221  00000+0  56960-3 0  9997
2 49199  87.8994 335.1715 0001714  82.4514 277.6810 13.13470536221066
ONEWEB-0334             
1 49200U 21083Q   26092.99180248  .00000024  00000+0  27281-4 0  9998
2 49200  87.9129 289.4648 0002683  92.3010 267.8431 13.20772407226866
ONEWEB-0335             
1 49201U 21083R   26093.17631899  .00000099  00000+0  23712-3 0  9999
2 49201  87.9004 335.1679 0001525  81.0666 279.0636 13.13472529221072
ONEWEB-0336             
1 49202U 21083S   26093.22371878 -.00000089  00000+0 -27905-3 0  9993
2 49202  87.8999 335.1550 0001307  75.0587 285.0687 13.13468726221073
ONEWEB-0337             
1 49203U 21083T   26093.15757254 -.00000243  00000+0 -69996-3 0  9990
2 49203  87.8995 335.1763 0001613  75.1348 284.9960 13.13471631221062
ONEWEB-0338             
1 49204U 21083U   26093.26957508  .00000177  00000+0  40315-3 0  9995
2 49204  87.9131 289.4142 0002052  90.5026 269.6342 13.20772581226920
ONEWEB-0339             
1 49205U 21083V   26093.16615760 -.00000131  00000+0 -39455-3 0  9991
2 49205  87.9004 335.1644 0002012  78.9709 281.1647 13.13469187221042
ONEWEB-0340             
1 49206U 21083W   26093.24401960  .00000087  00000+0  18813-3 0  9999
2 49206  87.9242 350.3494 0001665  80.2583 279.8737 13.18688826220094
