[{"OBJECT_NAME":"ONEWEB-0321","OBJECT_ID":"2021-083F","EPOCH":"2026-04-03T06:39:32.645952","MEAN_MOTION":13.20771945,"ECCENTRICITY":0.0001979,"INCLINATION":87.914,"RA_OF_ASC_NODE":289.3918,"ARG_OF_PERICENTER":85.3025,"MEAN_ANOMALY":274.8334,"EPHEMERIS_TYPE":0,"CLASSIFICATION_TYPE":"U","NORAD_CAT_ID":49191,"ELEMENT_SET_NO":999,"REV_AT_EPOCH":22694,"BSTAR":0.00016031000000000002,"MEAN_MOTION_DOT":7.8e-07,"MEAN_MOTION_DDOT":0.0},{"OBJECT_NAME":"ONEWEB-0322","OBJECT_ID":"2021-083G","EPOCH":"2026-04-03T04:43:10.153056","MEAN_MOTION":13.13469497,"ECCENTRICITY":0.0002169,"INCLINATION":87.8994,"RA_OF_ASC_NODE":335.1706,"ARG_OF_PERICENTER":85.5909,"MEAN_ANOMALY":274.5468,"EPHEMERIS_TYPE":0,"CLASSIFICATION_TYPE":"U","NORAD_CAT_ID":49192,"ELEMENT_SET_NO":999,"REV_AT_EPOCH":22107,"BSTAR":0.0011575000000000001,"MEAN_MOTION_DOT":4.35e-06,"MEAN_MOTION_DDOT":0.0},{"OBJECT_NAME":"ONEWEB-0324","OBJECT_ID":"2021-083H","EPOCH":"2026-04-03T05:53:45.869856","MEAN_MOTION":13.18688776,"ECCENTRICITY":0.0001736,"INCLINATION":87.924,"RA_OF_ASC_NODE":350.3435,"ARG_OF_PERICENTER":74.07,"MEAN_ANOMALY":286.0623,"EPHEMERIS_TYPE":0,"CLASSIFICATION_TYPE":"U","NORAD_CAT_ID":49193,"ELEMENT_SET_NO":999,"REV_AT_EPOCH":22012,"BSTAR":0.00026467,"MEAN_MOTION_DOT":1.17e-06,"MEAN_MOTION_DDOT":0.0},{"OBJECT_NAME":"ONEWEB-0325","OBJECT_ID":"2021-083J","EPOCH":"2026-04-03T05:58:30.655488","MEAN_MOTION":13.18689241,"ECCENTRICITY":0.0001778,"INCLINATION":87.9231,"RA_OF_ASC_NODE":350.3581,"ARG_OF_PERICENTER":81.304,"MEAN_ANOMALY":278.8293,"EPHEMERIS_TYPE":0,"CLASSIFICATION_TYPE":"U","NORAD_CAT_ID":49194,"ELEMENT_SET_NO":999,"REV_AT_EPOCH":22013,"BSTAR":0.00036342000000000004,"MEAN_MOTION_DOT":1.56e-06,"MEAN_MOTION_DDOT":0.0},{"OBJECT_NAME":"ONEWEB-0326","OBJECT_ID":"2021-083K","EPOCH":"2026-04-03T06:20:06.410976","MEAN_MOTION":13.18689335,"ECCENTRICITY":0.000147,"INCLINATION":87.9239,"RA_OF_ASC_NODE":350.3464,"ARG_OF_PERICENTER":84.801,"MEAN_ANOMALY":275.329,"EPHEMERIS_TYPE":0,"CLASSIFICATION_TYPE":"U","NORAD_CAT_ID":49195,"ELEMENT_SET_NO":999,"REV_AT_EPOCH":22012,"BSTAR":0.00037463000000000004,"MEAN_MOTION_DOT":1.61e-06,"MEAN_MOTION_DDOT":0.0},{"OBJECT_NAME":"ONEWEB-0327","OBJECT_ID":"2021-083L","EPOCH":"2026-04-03T06:19:42.284640","MEAN_MOTION":13.186867,"ECCENTRICITY":0.0001476,"INCLINATION":87.9234,"RA_OF_ASC_NODE":350.3568,"ARG_OF_PERICENTER":91.4808,"MEAN_ANOMALY":268.6494,"EPHEMERIS_TYPE":0,"CLASSIFICATION_TYPE":"U","NORAD_CAT_ID":49196,"ELEMENT_SET_NO":999,"REV_AT_EPOCH":22014,"BSTAR":0.00028235,"MEAN_MOTION_DOT":1.24e-06,"MEAN_MOTION_DDOT":0.0},{"OBJECT_NAME":"ONEWEB-0328","OBJECT_ID":"2021-083M","EPOCH":"2026-04-03T04:28:32.488032","MEAN_MOTION":13.13470083,"ECCENTRICITY":0.0001689,"INCLINATION":87.9012,"RA_OF_ASC_NODE":335.1362,"ARG_OF_PERICENTER":76.0462,"MEAN_ANOMALY":284.0855,"EPHEMERIS_TYPE":0,"CLASSIFICATION_TYPE":"U","NORAD_CAT_ID":49197,"ELEMENT_SET_NO":999,"REV_AT_EPOCH":22105,"BSTAR":0.0009884100000000001,"MEAN_MOTION_DOT":3.74e-06,"MEAN_MOTION_DDOT":0.0},{"OBJECT_NAME":"ONEWEB-0331","OBJECT_ID":"2021-083N","EPOCH":"2026-04-03T06:10:23.291328","MEAN_MOTION":13.1868716,"ECCENTRICITY":0.0001409,"INCLINATION":87.9239,"RA_OF_ASC_NODE":350.3414,"ARG_OF_PERICENTER":77.7026,"MEAN_ANOMALY":282.4264,"EPHEMERIS_TYPE":0,"CLASSIFICATION_TYPE":"U","NORAD_CAT_ID":49198,"ELEMENT_SET_NO":999,"REV_AT_EPOCH":22013,"BSTAR":-0.00038523,"MEAN_MOTION_DOT":-1.39e-06,"MEAN_MOTION_DDOT":0.0},{"OBJECT_NAME":"ONEWEB-0333","OBJECT_ID":"2021-083P","EPOCH":"2026-04-03T04:21:13.547520","MEAN_MOTION":13.13470536,"ECCENTRICITY":0.0001714,"INCLINATION":87.8994,"RA_OF_ASC_NODE":335.1715,"ARG_OF_PERICENTER":82.4514,"MEAN_ANOMALY":277.681,"EPHEMERIS_TYPE":0,"CLASSIFICATION_TYPE":"U","NORAD_CAT_ID":49199,"ELEMENT_SET_NO":999,"REV_AT_EPOCH":22106,"BSTAR":0.0005696,"MEAN_MOTION_DOT":2.21e-06,"MEAN_MOTION_DDOT":0.0},{"OBJECT_NAME":"ONEWEB-0334","OBJECT_ID":"2021-083Q","EPOCH":"2026-04-02T23:48:11.734272","MEAN_MOTION":13.20772407,"ECCENTRICITY":0.0002683,"INCLINATION":87.9129,"RA_OF_ASC_NODE":289.4648,"ARG_OF_PERICENTER":92.301,"MEAN_ANOMALY":267.8431,"EPHEMERIS_TYPE":0,"CLASSIFICATION_TYPE":"U","NORAD_CAT_ID":49200,"ELEMENT_SET_NO":999,"REV_AT_EPOCH":22686,"BSTAR":2.7281000000000002e-05,"MEAN_MOTION_DOT":2.4e-07,"MEAN_MOTION_DDOT":0.0},{"OBJECT_NAME":"ONEWEB-0335","OBJECT_ID":"2021-083R","EPOCH":"2026-04-03T04:13:53.960736","MEAN_MOTION":13.13472529,"ECCENTRICITY":0.0001525,"INCLINATION":87.9004,"RA_OF_ASC_NODE":335.1679,"ARG_OF_PERICENTER":81.0666,"MEAN_ANOMALY":279.0636,"EPHEMERIS_TYPE":0,"CLASSIFICATION_TYPE":"U","NORAD_CAT_ID":49201,"ELEMENT_SET_NO":999,"REV_AT_EPOCH":22107,"BSTAR":0.00023712,"MEAN_MOTION_DOT":9.9e-07,"MEAN_MOTION_DDOT":0.0},{"OBJECT_NAME":"ONEWEB-0336","OBJECT_ID":"2021-083S","EPOCH":"2026-04-03T05:22:09.302592","MEAN_MOTION":13.13468726,"ECCENTRICITY":0.0001307,"INCLINATION":87.8999,"RA_OF_ASC_NODE":335.155,"ARG_OF_PERICENTER":75.0587,"MEAN_ANOMALY":285.0687,"EPHEMERIS_TYPE":0,"CLASSIFICATION_TYPE":"U","NORAD_CAT_ID":49202,"ELEMENT_SET_NO":999,"REV_AT_EPOCH":22107,"BSTAR":-0.00027905000000000003,"MEAN_MOTION_DOT":-8.9e-07,"MEAN_MOTION_DDOT":0.0},{"OBJECT_NAME":"ONEWEB-0337","OBJECT_ID":"2021-083T","EPOCH":"2026-04-03T03:46:54.267456","MEAN_MOTION":13.13471631,"ECCENTRICITY":0.0001613,"INCLINATION":87.8995,"RA_OF_ASC_NODE":335.1763,"ARG_OF_PERICENTER":75.1348,"MEAN_ANOMALY":284.996,"EPHEMERIS_TYPE":0,"CLASSIFICATION_TYPE":"U","NORAD_CAT_ID":49203,"ELEMENT_SET_NO":999,"REV_AT_EPOCH":22106,"BSTAR":-0.00069996,"MEAN_MOTION_DOT":-2.43e-06,"MEAN_MOTION_DDOT":0.0},{"OBJECT_NAME":"ONEWEB-0338","OBJECT_ID":"2021-083U","EPOCH":"2026-04-03T06:28:11.286912","MEAN_MOTION":13.20772581,"ECCENTRICITY":0.0002052,"INCLINATION":87.9131,"RA_OF_ASC_NODE":289.4142,"ARG_OF_PERICENTER":90.5026,"MEAN_ANOMALY":269.6342,"EPHEMERIS_TYPE":0,"CLASSIFICATION_TYPE":"U","NORAD_CAT_ID":49204,"ELEMENT_SET_NO":999,"REV_AT_EPOCH":22692,"BSTAR":0.00040315,"MEAN_MOTION_DOT":1.77e-06,"MEAN_MOTION_DDOT":0.0},{"OBJECT_NAME":"ONEWEB-0339","OBJECT_ID":"2021-083V","EPOCH":"2026-04-03T03:59:16.016640","MEAN_MOTION":13.13469187,"ECCENTRICITY":0.0002012,"INCLINATION":87.9004,"RA_OF_ASC_NODE":335.1644,"ARG_OF_PERICENTER":78.9709,"MEAN_ANOMALY":281.1647,"EPHEMERIS_TYPE":0,"CLASSIFICATION_TYPE":"U","NORAD_CAT_ID":49205,"ELEMENT_SET_NO":999,"REV_AT_EPOCH":22104,"BSTAR":-0.00039455,"MEAN_MOTION_DOT":-1.31e-06,"MEAN_MOTION_DDOT":0.0},{"OBJECT_NAME":"ONEWEB-0340","OBJECT_ID":"2021-083W","EPOCH":"2026-04-03T05:51:23.293440","MEAN_MOTION":13.18688826,"ECCENTRICITY":0.0001665,"INCLINATION":87.9242,"RA_OF_ASC_NODE":350.3494,"ARG_OF_PERICENTER":80.2583,"MEAN_ANOMALY":279.8737,"EPHEMERIS_TYPE":0,"CLASSIFICATION_TYPE":"U","NORAD_CAT_ID":49206,"ELEMENT_SET_NO":999,"REV_AT_EPOCH":22009,"BSTAR":0.00018813,"MEAN_MOTION_DOT":8.7e-07,"MEAN_MOTION_DDOT":0.0}]